NORAD_CAT_ID,OBJECT_NAME,OBJECT_TYPE,EPOCH,MEAN_MOTION,ECCENTRICITY,INCLINATION,RA_OF_ASC_NODE,ARG_OF_PERICENTER,MEAN_ANOMALY,BSTAR,MEAN_MOTION_DOT,MEAN_MOTION_DDOT,TLE_LINE0,TLE_LINE1,TLE_LINE2,SEMIMAJOR_AXIS,PERIOD,APOGEE,PERIGEE,DECAYED
53709.0,STARLINK-4685,PAYLOAD,2024-03-23 19:14:58,15.08841571,0.0001285,53.2159,222.5571,92.5518,267.5622,0.00047862,7.338e-05,0.0,0 STARLINK-4685,1 53709U 22107K   24083.80207170  .00007338  00000-0  47862-3 0  9999,2 53709  53.2159 222.5571 0001285  92.5518 267.5622 15.08841571 86409,6917.876,95.437,540.63,538.852,0.0
53709.0,STARLINK-4685,PAYLOAD,2024-03-24 14:19:36,15.08856866,0.000144,53.2171,218.9864,90.7504,269.3653,0.00095576,0.00014963,0.0,0 STARLINK-4685,1 53709U 22107K   24084.59695131  .00014963  00000-0  95576-3 0  9991,2 53709  53.2171 218.9864 0001440  90.7504 269.3653 15.08856866 86525,6917.829,95.436,540.69,538.698,0.0
53709.0,STARLINK-4685,PAYLOAD,2024-03-24 15:54:59,15.08863064,0.0001531,53.2173,218.6884,100.4583,259.6582,0.0011365,0.00017857,0.0,0 STARLINK-4685,1 53709U 22107K   24084.66318939  .00017857  00000-0  11365-2 0  9995,2 53709  53.2173 218.6884 0001531 100.4583 259.6582 15.08863064 86096,6917.81,95.436,540.734,538.616,0.0
53709.0,STARLINK-4685,PAYLOAD,2024-03-25 01:27:18,15.08861437,0.000189,53.2166,216.9037,80.2271,279.8934,0.0012638,0.00019894,0.0,0 STARLINK-4685,1 53709U 22107K   24085.06062962  .00019894  00000-0  12638-2 0  9999,2 53709  53.2166 216.9037 0001890  80.2271 279.8934 15.08861437 86150,6917.815,95.436,540.987,538.372,0.0
53709.0,STARLINK-4685,PAYLOAD,2024-03-25 12:35:00,15.08840911,0.0002014,53.2187,214.8312,118.7315,241.388,-0.00023088,-3.961e-05,0.0,0 STARLINK-4685,1 53709U 22107K   24085.52431211 -.00003961  00000-0 -23088-3 0  9999,2 53709  53.2187 214.8312 0002014 118.7315 241.3880 15.08840911 86227,6917.878,95.437,541.136,538.349,0.0
53709.0,STARLINK-4685,PAYLOAD,2024-03-25 15:45:46,15.08846094,0.0001581,53.2175,214.2372,111.1882,248.9279,0.00024675,3.642e-05,0.0,0 STARLINK-4685,1 53709U 22107K   24085.65679289  .00003642  00000-0  24675-3 0  9999,2 53709  53.2175 214.2372 0001581 111.1882 248.9279 15.08846094 86681,6917.862,95.437,540.82,538.633,0.0
53709.0,STARLINK-4685,PAYLOAD,2024-03-26 12:25:48,15.08822906,7.8e-05,53.2162,210.3678,71.115,288.9927,-9.4024e-05,-1.783e-05,0.0,0 STARLINK-4685,1 53709U 22107K   24086.51792703 -.00001783  00000-0 -94024-4 0  9994,2 53709  53.2162 210.3678 0000780  71.1150 288.9927 15.08822906 86372,6917.933,95.439,540.337,539.258,0.0
53709.0,STARLINK-4685,PAYLOAD,2024-03-26 14:01:12,15.08822342,0.0001718,53.2163,210.0679,95.3551,264.7637,-0.00011004,-2.038e-05,0.0,0 STARLINK-4685,1 53709U 22107K   24086.58416804 -.00002038  00000-0 -11004-3 0  9996,2 53709  53.2163 210.0679 0001718  95.3551 264.7637 15.08822342 86820,6917.934,95.439,540.988,538.611,0.0
53709.0,STARLINK-4685,PAYLOAD,2024-03-26 18:47:19,15.08880691,0.0001414,53.2159,209.173,82.9384,277.1769,0.0012585,0.0001982,0.0,0 STARLINK-4685,1 53709U 22107K   24086.78286711  .00019820  00000-0  12585-2 0  9999,2 53709  53.2159 209.1730 0001414  82.9384 277.1769 15.08880691 86411,6917.756,95.435,540.599,538.643,0.0
53709.0,STARLINK-4685,PAYLOAD,2024-03-27 12:16:34,15.08833933,0.0002051,53.2159,205.9073,11.7358,348.3682,-2.8402e-05,-7.4e-06,0.0,0 STARLINK-4685,1 53709U 22107K   24087.51151346 -.00000740  00000-0 -28402-4 0  9996,2 53709  53.2159 205.9073 0002051  11.7358 348.3682 15.08833933 86528,6917.899,95.438,541.183,538.345,0.0
53709.0,STARLINK-4685,PAYLOAD,2024-03-27 13:51:57,15.08836514,0.0001718,53.2156,205.6079,22.4547,337.652,-8.0828e-05,-1.574e-05,0.0,0 STARLINK-4685,1 53709U 22107K   24087.57775129 -.00001574  00000-0 -80828-4 0  9999,2 53709  53.2156 205.6079 0001718  22.4547 337.6520 15.08836514 86975,6917.891,95.438,540.945,538.568,0.0
53709.0,STARLINK-4685,PAYLOAD,2024-03-27 15:27:20,15.08824464,9.6e-05,53.2161,205.3139,83.3985,276.7116,-0.00037706,-6.281e-05,0.0,0 STARLINK-4685,1 53709U 22107K   24087.64399157 -.00006281  00000-0 -37706-3 0  9996,2 53709  53.2161 205.3139 0000960  83.3985 276.7116 15.08824464 86981,6917.928,95.439,540.457,539.129,0.0
53709.0,STARLINK-4685,PAYLOAD,2024-03-28 13:42:45,15.08830973,7.91e-05,53.2153,201.151,64.9622,295.1452,-0.00011262,-2.079e-05,0.0,0 STARLINK-4685,1 53709U 22107K   24088.57135666 -.00002079  00000-0 -11262-3 0  9992,2 53709  53.2153 201.1510 0000791  64.9622 295.1452 15.08830973 86681,6917.908,95.438,540.32,539.226,0.0
53709.0,STARLINK-4685,PAYLOAD,2024-03-29 11:58:09,15.0883736,7.41e-05,53.2158,196.9873,71.7057,288.4016,0.00050129,7.699e-05,0.0,0 STARLINK-4685,1 53709U 22107K   24089.49872208  .00007699  00000-0  50129-3 0  9990,2 53709  53.2158 196.9873 0000741  71.7057 288.4016 15.08837360 87265,6917.888,95.438,540.266,539.241,0.0
53709.0,STARLINK-4685,PAYLOAD,2024-03-30 13:24:20,15.08836289,9.52e-05,53.2161,192.2303,93.3325,266.7776,0.00017725,2.534e-05,0.0,0 STARLINK-4685,1 53709U 22107K   24090.55856817  .00002534  00000-0  17725-3 0  9995,2 53709  53.2161 192.2303 0000952  93.3325 266.7776 15.08836289 86987,6917.892,95.438,540.415,539.098,0.0
53709.0,STARLINK-4685,PAYLOAD,2024-03-31 13:15:06,15.08842691,0.0001164,53.2165,187.7709,115.7665,244.3447,0.00048878,7.5e-05,0.0,0 STARLINK-4685,1 53709U 22107K   24091.55216387  .00007500  00000-0  48878-3 0  9999,2 53709  53.2165 187.7709 0001164 115.7665 244.3447 15.08842691 87579,6917.872,95.437,540.542,538.932,0.0
53709.0,STARLINK-4685,PAYLOAD,2024-03-31 16:25:52,15.08856196,0.0001003,53.2162,187.1747,93.1469,266.9638,0.00042059,6.415e-05,0.0,0 STARLINK-4685,1 53709U 22107K   24091.68463832  .00006415  00000-0  42059-3 0  9991,2 53709  53.2162 187.1747 0001003  93.1469 266.9638 15.08856196 87156,6917.831,95.437,540.39,539.002,0.0
53709.0,STARLINK-4685,PAYLOAD,2024-03-31 22:47:26,15.08827643,0.0001278,53.2179,185.9862,104.5117,255.6017,-0.00014827,-2.646e-05,0.0,0 STARLINK-4685,1 53709U 22107K   24091.94960966 -.00002646  00000-0 -14827-3 0  9996,2 53709  53.2179 185.9862 0001278 104.5117 255.6017 15.08827643 87633,6917.918,95.438,540.667,538.899,0.0
53709.0,STARLINK-4685,PAYLOAD,2024-04-01 13:05:54,15.08837546,0.0001159,53.2162,183.3103,105.7069,254.4051,0.00011144,1.486e-05,0.0,0 STARLINK-4685,1 53709U 22107K   24092.54576938  .00001486  00000-0  11144-3 0  9993,2 53709  53.2162 183.3103 0001159 105.7069 254.4051 15.08837546 87281,6917.888,95.438,540.555,538.951,0.0
53709.0,STARLINK-4685,PAYLOAD,2024-04-02 12:56:41,15.08854286,0.000118,53.2164,178.85,108.9919,251.1202,0.00066194,0.00010267,0.0,0 STARLINK-4685,1 53709U 22107K   24093.53936685  .00010267  00000-0  66194-3 0  9994,2 53709  53.2164 178.8500 0001180 108.9919 251.1202 15.08854286 87873,6917.837,95.437,540.518,538.885,0.0
53709.0,STARLINK-4685,PAYLOAD,2024-04-02 22:29:00,15.08846869,0.0001103,53.2158,177.0662,110.8864,249.2246,0.00015984,2.257e-05,0.0,0 STARLINK-4685,1 53709U 22107K   24093.93680601  .00002257  00000-0  15984-3 0  9993,2 53709  53.2158 177.0662 0001103 110.8864 249.2246 15.08846869 87933,6917.859,95.437,540.487,538.961,0.0
53709.0,STARLINK-4685,PAYLOAD,2024-04-03 04:50:32,15.08847716,0.0001098,53.2158,175.8768,110.5186,249.5924,0.00019584,2.831e-05,0.0,0 STARLINK-4685,1 53709U 22107K   24094.20176532  .00002831  00000-0  19584-3 0  9995,2 53709  53.2158 175.8768 0001098 110.5186 249.5924 15.08847716 87537,6917.857,95.437,540.481,538.962,0.0
53709.0,STARLINK-4685,PAYLOAD,2024-04-03 11:12:05,15.08835953,0.0001459,53.2176,174.6857,99.3413,260.7744,-3.0857e-05,-7.79e-06,0.0,0 STARLINK-4685,1 53709U 22107K   24094.46673080 -.00000779  00000-0 -30857-4 0  9991,2 53709  53.2176 174.6857 0001459  99.3413 260.7744 15.08835953 87570,6917.893,95.438,540.767,538.748,0.0
53709.0,STARLINK-4685,PAYLOAD,2024-04-03 14:22:51,15.08838585,0.0001355,53.2163,174.0908,95.4907,264.624,4.7329e-05,4.65e-06,0.0,0 STARLINK-4685,1 53709U 22107K   24094.59921127  .00000465  00000-0  47329-4 0  9995,2 53709  53.2163 174.0908 0001355  95.4907 264.6240 15.08838585 88037,6917.885,95.438,540.687,538.812,0.0
53709.0,STARLINK-4685,PAYLOAD,2024-04-03 22:19:47,15.08841401,0.0001388,53.2163,172.6034,90.8705,269.2446,0.00013053,1.79e-05,0.0,0 STARLINK-4685,1 53709U 22107K   24094.93041092  .00001790  00000-0  13053-3 0  9995,2 53709  53.2163 172.6034 0001388  90.8705 269.2446 15.08841401 88087,6917.876,95.437,540.701,538.781,0.0
53709.0,STARLINK-4685,PAYLOAD,2024-04-04 12:38:15,15.08845682,0.0001247,53.2158,169.9271,100.6562,259.4571,0.00022483,3.293e-05,0.0,0 STARLINK-4685,1 53709U 22107K   24095.52656945  .00003293  00000-0  22483-3 0  9997,2 53709  53.2158 169.9271 0001247 100.6562 259.4571 15.08845682 87734,6917.863,95.437,540.591,538.865,0.0
53709.0,STARLINK-4685,PAYLOAD,2024-04-04 22:10:34,15.08847109,0.0001199,53.2157,168.1432,92.4075,267.7054,0.00032887,4.951e-05,0.0,0 STARLINK-4685,1 53709U 22107K   24095.92400922  .00004951  00000-0  32887-3 0  9994,2 53709  53.2157 168.1432 0001199  92.4075 267.7054 15.08847109 88236,6917.859,95.437,540.553,538.894,0.0
53709.0,STARLINK-4685,PAYLOAD,2024-04-05 14:04:23,15.08892674,0.000106,53.2159,165.1696,95.6377,264.4736,0.001042,0.00016358,0.0,0 STARLINK-4685,1 53709U 22107K   24096.58638751  .00016358  00000-0  10420-2 0  9992,2 53709  53.2159 165.1696 0001060  95.6377 264.4736 15.08892674 88333,6917.719,95.434,540.318,538.851,0.0
53709.0,STARLINK-4685,PAYLOAD,2024-04-06 04:22:51,15.08872873,0.0001238,53.2159,162.4935,88.1979,271.9155,0.00047847,7.342e-05,0.0,0 STARLINK-4685,1 53709U 22107K   24097.18254613  .00007342  00000-0  47847-3 0  9997,2 53709  53.2159 162.4935 0001238  88.1979 271.9155 15.08872873 87988,6917.78,95.435,540.501,538.788,0.0
53709.0,STARLINK-4685,PAYLOAD,2024-04-06 10:44:25,15.08833019,0.0001307,53.2157,161.3036,85.4705,274.6436,-0.00033204,-5.567e-05,0.0,0 STARLINK-4685,1 53709U 22107K   24097.44751813 -.00005567  00000-0 -33204-3 0  9991,2 53709  53.2157 161.3036 0001307  85.4705 274.6436 15.08833019 88027,6917.902,95.438,540.671,538.863,0.0
